MALLIGYONG-1            
1 58400U 23179A   24215.61667919  .00008315  00000+0  36987-3 0  9990
2 58400  97.3978 101.6795 0003129  66.6446 293.5119 15.21735630 38787
